{
  "norad_id": 63149,
  "name": "STARLINK-32939",
  "history": [
    {
      "epoch": "2026-03-28T21:45:47.559744Z",
      "apogee_km": 484.5358171384578,
      "perigee_km": 481.33992846270667,
      "latitude_deg": -4.704904010962588e-05,
      "longitude_deg": 114.74356497342207,
      "height_km": 482.71624752527134,
      "semi_major_axis_km": 6861.074872800582,
      "eccentricity": 0.0002329,
      "inclination_deg": 42.9975,
      "raan_deg": 267.5123,
      "arg_perigee_deg": 269.9555,
      "mean_anomaly_deg": 90.1029,
      "mean_motion_rev_day": 15.27617145
    },
    {
      "epoch": "2026-03-28T21:45:47.560608Z",
      "apogee_km": 484.535542695462,
      "perigee_km": 481.3402029057015,
      "latitude_deg": -5.019367571306355e-05,
      "longitude_deg": 114.74355800969836,
      "height_km": 482.71624731229196,
      "semi_major_axis_km": 6861.074872800582,
      "eccentricity": 0.00023286,
      "inclination_deg": 42.9975,
      "raan_deg": 267.5123,
      "arg_perigee_deg": 269.9555,
      "mean_anomaly_deg": 90.1029,
      "mean_motion_rev_day": 15.27617145
    },
    {
      "epoch": "2026-03-29T21:18:08.791200Z",
      "apogee_km": 484.21178551820867,
      "perigee_km": 481.83864673089556,
      "latitude_deg": -3.1363092517575684e-05,
      "longitude_deg": 115.14729585645135,
      "height_km": 482.6801288979762,
      "semi_major_axis_km": 6861.162216124552,
      "eccentricity": 0.00017294,
      "inclination_deg": 43.0003,
      "raan_deg": 261.9712,
      "arg_perigee_deg": 275.9063,
      "mean_anomaly_deg": 84.1591,
      "mean_motion_rev_day": 15.27587975
    },
    {
      "epoch": "2026-03-30T11:25:33.713760Z",
      "apogee_km": 483.5711814793567,
      "perigee_km": 482.4100042455402,
      "latitude_deg": 1.7205518543955495e-05,
      "longitude_deg": -100.60973095359513,
      "height_km": 482.644206680894,
      "semi_major_axis_km": 6861.127592862448,
      "eccentricity": 8.462e-05,
      "inclination_deg": 42.9976,
      "raan_deg": 258.648,
      "arg_perigee_deg": 282.1641,
      "mean_anomaly_deg": 77.9116,
      "mean_motion_rev_day": 15.27599538
    },
    {
      "epoch": "2026-03-30T19:16:20.440704Z",
      "apogee_km": 484.2725596567525,
      "perigee_km": 481.5996228018721,
      "latitude_deg": 3.193807415045132e-05,
      "longitude_deg": 139.52615290774855,
      "height_km": 482.7587562301479,
      "semi_major_axis_km": 6861.073091229312,
      "eccentricity": 0.00019479,
      "inclination_deg": 43.0,
      "raan_deg": 256.8008,
      "arg_perigee_deg": 268.0471,
      "mean_anomaly_deg": 92.0158,
      "mean_motion_rev_day": 15.2761774
    },
    {
      "epoch": "2026-03-31T17:14:32.637984Z",
      "apogee_km": 484.1962172709764,
      "perigee_km": 481.79207691703414,
      "latitude_deg": -1.1488848658481933e-05,
      "longitude_deg": 163.90400774253155,
      "height_km": 482.90715329974375,
      "semi_major_axis_km": 6861.131147094005,
      "eccentricity": 0.0001752,
      "inclination_deg": 43.001,
      "raan_deg": 251.6318,
      "arg_perigee_deg": 263.5067,
      "mean_anomaly_deg": 96.5585,
      "mean_motion_rev_day": 15.27598351
    },
    {
      "epoch": "2026-04-01T16:46:53.383008Z",
      "apogee_km": 483.68573024811394,
      "perigee_km": 482.2942936900872,
      "latitude_deg": 3.953990123696202e-05,
      "longitude_deg": 164.31080950298386,
      "height_km": 482.8571963966302,
      "semi_major_axis_km": 6861.127011969101,
      "eccentricity": 0.0001014,
      "inclination_deg": 43.0003,
      "raan_deg": 246.0917,
      "arg_perigee_deg": 262.5003,
      "mean_anomaly_deg": 97.5734,
      "mean_motion_rev_day": 15.27599732
    },
    {
      "epoch": "2026-04-02T19:27:31.951872Z",
      "apogee_km": 483.9652308249397,
      "perigee_km": 481.83282082811274,
      "latitude_deg": 2.548178373865729e-05,
      "longitude_deg": 116.7783907719267,
      "height_km": 482.6416196184955,
      "semi_major_axis_km": 6861.036025826526,
      "eccentricity": 0.0001554,
      "inclination_deg": 43.0003,
      "raan_deg": 239.8156,
      "arg_perigee_deg": 271.8416,
      "mean_anomaly_deg": 88.2258,
      "mean_motion_rev_day": 15.27630119
    },
    {
      "epoch": "2026-04-02T19:27:31.952736Z",
      "apogee_km": 483.9655052663802,
      "perigee_km": 481.8325463866722,
      "latitude_deg": 2.8622065798354278e-05,
      "longitude_deg": 116.77839051097062,
      "height_km": 482.6416108008663,
      "semi_major_axis_km": 6861.036025826526,
      "eccentricity": 0.00015544,
      "inclination_deg": 43.0003,
      "raan_deg": 239.8156,
      "arg_perigee_deg": 271.8416,
      "mean_anomaly_deg": 88.2258,
      "mean_motion_rev_day": 15.27630119
    },
    {
      "epoch": "2026-04-03T15:51:33.537312Z",
      "apogee_km": 483.78730275275393,
      "perigee_km": 482.15298703083954,
      "latitude_deg": 3.041982933319991e-05,
      "longitude_deg": 165.13137380343954,
      "height_km": 483.0863075025723,
      "semi_major_axis_km": 6861.107144891796,
      "eccentricity": 0.0001191,
      "inclination_deg": 43.0006,
      "raan_deg": 235.013,
      "arg_perigee_deg": 245.4347,
      "mean_anomaly_deg": 114.6381,
      "mean_motion_rev_day": 15.27606367
    },
    {
      "epoch": "2026-04-04T15:23:54.970944Z",
      "apogee_km": 484.5320926518516,
      "perigee_km": 481.56257207280487,
      "latitude_deg": -4.185418342143009e-05,
      "longitude_deg": 165.53666512078624,
      "height_km": 482.44886378144923,
      "semi_major_axis_km": 6861.184332362328,
      "eccentricity": 0.0002164,
      "inclination_deg": 42.9994,
      "raan_deg": 229.4744,
      "arg_perigee_deg": 284.6574,
      "mean_anomaly_deg": 75.4037,
      "mean_motion_rev_day": 15.27580589
    },
    {
      "epoch": "2026-04-05T10:13:46.861248Z",
      "apogee_km": 484.14416085539597,
      "perigee_km": 481.75334691359603,
      "latitude_deg": 5.7223691932747756e-05,
      "longitude_deg": -122.13560492170984,
      "height_km": 482.7804819524773,
      "semi_major_axis_km": 6861.085753884496,
      "eccentricity": 0.00017423,
      "inclination_deg": 42.9994,
      "raan_deg": 225.0416,
      "arg_perigee_deg": 267.3708,
      "mean_anomaly_deg": 92.6945,
      "mean_motion_rev_day": 15.27613511
    },
    {
      "epoch": "2026-04-05T18:04:34.399488Z",
      "apogee_km": 484.81117380119576,
      "perigee_km": 481.37026809913914,
      "latitude_deg": 1.5836731925879e-05,
      "longitude_deg": 118.00672847046427,
      "height_km": 482.1331271190242,
      "semi_major_axis_km": 6861.227720950167,
      "eccentricity": 0.00025075,
      "inclination_deg": 43.0043,
      "raan_deg": 223.2043,
      "arg_perigee_deg": 295.3109,
      "mean_anomaly_deg": 64.7483,
      "mean_motion_rev_day": 15.27566099
    },
    {
      "epoch": "2026-04-07T09:18:29.545344Z",
      "apogee_km": 483.8500971649637,
      "perigee_km": 482.12589645326534,
      "latitude_deg": 5.784094603607396e-05,
      "longitude_deg": -121.32480556345519,
      "height_km": 483.4528370213681,
      "semi_major_axis_km": 6861.124996809114,
      "eccentricity": 0.00012565,
      "inclination_deg": 43.0001,
      "raan_deg": 213.9637,
      "arg_perigee_deg": 216.9678,
      "mean_anomaly_deg": 143.1088,
      "mean_motion_rev_day": 15.27600405
    }
  ]
}